TRANSPORTER-16 OBJECT AY
1 68462U 26067AY  26110.53195733  .00005800  00000+0  28923-3 0  9992
2 68462  97.4522  69.8618 0001574 172.9889 187.1368 15.17914774  3199
TRANSPORTER-16 OBJECT AZ
1 68463U 26067AZ  26110.60560603  .00004965  00000+0  25233-3 0  9995
2 68463  97.4500  69.9106 0001600 276.9885  83.1166 15.17322022  3202
TRANSPORTER-16 OBJECT BA
1 68464U 26067BA  26110.67169618  .00003746  00000+0  19133-3 0  9992
2 68464  97.4485  69.9693 0001418 291.9191  68.1892 15.17302004  3218
TRANSPORTER-16 OBJECT BB
1 68465U 26067BB  26110.54003956  .00002331  00000+0  12049-3 0  9999
2 68465  97.4487  69.8407 0001472 289.6664  70.4410 15.17258906  3192
TRANSPORTER-16 OBJECT BC
1 68466U 26067BC  26110.61334769  .00005910  00000+0  30415-3 0  9990
2 68466  97.4453  69.8858 0004136 287.1387  72.9393 15.16794518  3056
TRANSPORTER-16 OBJECT BD
1 68467U 26067BD  26110.54417248  .00013303  00000+0  67193-3 0  9995
2 68467  97.4387  69.8105 0003985 280.9991  79.0794 15.17199699  3199
ERMIS-1
1 68468U 26067BE  26111.47201147  .00006828  00000+0  35112-3 0  9998
2 68468  97.4525  70.7472 0004729 248.4749 111.5981 15.16764151  3335
TRANSPORTER-16 OBJECT BF
1 68469U 26067BF  26110.60523652  .00002358  00000+0  12166-3 0  9999
2 68469  97.4504  69.9120 0001479 272.8739  87.2325 15.17311572  3205
TRANSPORTER-16 OBJECT BG
1 68470U 26067BG  26111.47258697  .00006091  00000+0  31407-3 0  9998
2 68470  97.4446  70.7258 0004899 265.7206  94.3467 15.16714423  3334
TRANSPORTER-16 OBJECT BH
1 68471U 26067BH  26111.58075467  .00005584  00000+0  57011-3 0  9998
2 68471  97.7548  70.6964 0002256 217.5099 142.5962 14.91007785  3293
FLYLAB1
1 68472U 26067BJ  26111.58230296  .00000541  00000+0  60509-4 0  9997
2 68472  97.7591  70.7041 0003337 209.2553 150.8479 14.90855000  3298
TRANSPORTER-16 OBJECT BK
1 68473U 26067BK  26110.53169278  .00005369  00000+0  26780-3 0  9998
2 68473  97.4505  69.8565 0001290 167.7350 192.3915 15.17938489  3176
BLACK KITE-2
1 68474U 26067BL  26111.56114731  .00002852  00000+0  28463-3 0  9991
2 68474  97.7513  70.7154 0003924  80.1094 280.0568 14.92313499  3284
TRANSPORTER-16 OBJECT BM
1 68475U 26067BM  26111.58033171  .00006594  00000+0  67036-3 0  9998
2 68475  97.7496  70.6870 0001745 232.1258 127.9803 14.91110799  2769
TRANSPORTER-16 OBJECT BN
1 68476U 26067BN  26111.56144146  .00003636  00000+0  36129-3 0  9995
2 68476  97.7528  70.7175 0004080  90.9227 269.2459 14.92308895  3288
TRANSPORTER-16 OBJECT BP
1 68477U 26067BP  26111.64739002  .00005663  00000+0  57694-3 0  9998
2 68477  97.7501  70.7533 0002345 235.2126 124.8872 14.91089490  2709
