[{"OBJECT_NAME":"TRANSPORTER-16 OBJECT AY","OBJECT_ID":"2026-067AY","EPOCH":"2026-04-20T12:46:01.113312","MEAN_MOTION":15.17914774,"ECCENTRICITY":0.00015744,"INCLINATION":97.4522,"RA_OF_ASC_NODE":69.8618,"ARG_OF_PERICENTER":172.9889,"MEAN_ANOMALY":187.1368,"EPHEMERIS_TYPE":0,"CLASSIFICATION_TYPE":"U","NORAD_CAT_ID":68462,"ELEMENT_SET_NO":999,"REV_AT_EPOCH":319,"BSTAR":0.00028922942,"MEAN_MOTION_DOT":5.8e-5,"MEAN_MOTION_DDOT":0},{"OBJECT_NAME":"TRANSPORTER-16 OBJECT AZ","OBJECT_ID":"2026-067AZ","EPOCH":"2026-04-20T14:32:04.360992","MEAN_MOTION":15.17322022,"ECCENTRICITY":0.00016006,"INCLINATION":97.45,"RA_OF_ASC_NODE":69.9106,"ARG_OF_PERICENTER":276.9885,"MEAN_ANOMALY":83.1166,"EPHEMERIS_TYPE":0,"CLASSIFICATION_TYPE":"U","NORAD_CAT_ID":68463,"ELEMENT_SET_NO":999,"REV_AT_EPOCH":320,"BSTAR":0.00025232737,"MEAN_MOTION_DOT":4.965e-5,"MEAN_MOTION_DDOT":0},{"OBJECT_NAME":"TRANSPORTER-16 OBJECT BA","OBJECT_ID":"2026-067BA","EPOCH":"2026-04-20T16:07:14.549952","MEAN_MOTION":15.17302004,"ECCENTRICITY":0.00014183,"INCLINATION":97.4485,"RA_OF_ASC_NODE":69.9693,"ARG_OF_PERICENTER":291.9191,"MEAN_ANOMALY":68.1892,"EPHEMERIS_TYPE":0,"CLASSIFICATION_TYPE":"U","NORAD_CAT_ID":68464,"ELEMENT_SET_NO":999,"REV_AT_EPOCH":321,"BSTAR":0.00019132789,"MEAN_MOTION_DOT":3.746e-5,"MEAN_MOTION_DDOT":0},{"OBJECT_NAME":"TRANSPORTER-16 OBJECT BB","OBJECT_ID":"2026-067BB","EPOCH":"2026-04-20T12:57:39.417984","MEAN_MOTION":15.17258906,"ECCENTRICITY":0.00014726,"INCLINATION":97.4487,"RA_OF_ASC_NODE":69.8407,"ARG_OF_PERICENTER":289.6664,"MEAN_ANOMALY":70.441,"EPHEMERIS_TYPE":0,"CLASSIFICATION_TYPE":"U","NORAD_CAT_ID":68465,"ELEMENT_SET_NO":999,"REV_AT_EPOCH":319,"BSTAR":0.00012048669,"MEAN_MOTION_DOT":2.331e-5,"MEAN_MOTION_DDOT":0},{"OBJECT_NAME":"TRANSPORTER-16 OBJECT BC","OBJECT_ID":"2026-067BC","EPOCH":"2026-04-20T14:43:13.240416","MEAN_MOTION":15.16794518,"ECCENTRICITY":0.00041368,"INCLINATION":97.4453,"RA_OF_ASC_NODE":69.8858,"ARG_OF_PERICENTER":287.1387,"MEAN_ANOMALY":72.9393,"EPHEMERIS_TYPE":0,"CLASSIFICATION_TYPE":"U","NORAD_CAT_ID":68466,"ELEMENT_SET_NO":999,"REV_AT_EPOCH":305,"BSTAR":0.00030415211,"MEAN_MOTION_DOT":5.91e-5,"MEAN_MOTION_DDOT":0},{"OBJECT_NAME":"TRANSPORTER-16 OBJECT BD","OBJECT_ID":"2026-067BD","EPOCH":"2026-04-20T13:03:36.502272","MEAN_MOTION":15.17199699,"ECCENTRICITY":0.00039852,"INCLINATION":97.4387,"RA_OF_ASC_NODE":69.8105,"ARG_OF_PERICENTER":280.9991,"MEAN_ANOMALY":79.0794,"EPHEMERIS_TYPE":0,"CLASSIFICATION_TYPE":"U","NORAD_CAT_ID":68467,"ELEMENT_SET_NO":999,"REV_AT_EPOCH":319,"BSTAR":0.00067193014,"MEAN_MOTION_DOT":0.00013303,"MEAN_MOTION_DDOT":0},{"OBJECT_NAME":"ERMIS-1","OBJECT_ID":"2026-067BE","EPOCH":"2026-04-21T11:19:41.791008","MEAN_MOTION":15.16764151,"ECCENTRICITY":0.0004729,"INCLINATION":97.4525,"RA_OF_ASC_NODE":70.7472,"ARG_OF_PERICENTER":248.4749,"MEAN_ANOMALY":111.5981,"EPHEMERIS_TYPE":0,"CLASSIFICATION_TYPE":"U","NORAD_CAT_ID":68468,"ELEMENT_SET_NO":999,"REV_AT_EPOCH":333,"BSTAR":0.00035112,"MEAN_MOTION_DOT":6.828e-5,"MEAN_MOTION_DDOT":0},{"OBJECT_NAME":"TRANSPORTER-16 OBJECT BF","OBJECT_ID":"2026-067BF","EPOCH":"2026-04-20T14:31:32.435328","MEAN_MOTION":15.17311572,"ECCENTRICITY":0.00014796,"INCLINATION":97.4504,"RA_OF_ASC_NODE":69.912,"ARG_OF_PERICENTER":272.8739,"MEAN_ANOMALY":87.2325,"EPHEMERIS_TYPE":0,"CLASSIFICATION_TYPE":"U","NORAD_CAT_ID":68469,"ELEMENT_SET_NO":999,"REV_AT_EPOCH":320,"BSTAR":0.00012166245,"MEAN_MOTION_DOT":2.358e-5,"MEAN_MOTION_DDOT":0},{"OBJECT_NAME":"TRANSPORTER-16 OBJECT BG","OBJECT_ID":"2026-067BG","EPOCH":"2026-04-21T11:20:31.514208","MEAN_MOTION":15.16714423,"ECCENTRICITY":0.0004899,"INCLINATION":97.4446,"RA_OF_ASC_NODE":70.7258,"ARG_OF_PERICENTER":265.7206,"MEAN_ANOMALY":94.3467,"EPHEMERIS_TYPE":0,"CLASSIFICATION_TYPE":"U","NORAD_CAT_ID":68470,"ELEMENT_SET_NO":999,"REV_AT_EPOCH":333,"BSTAR":0.00031407,"MEAN_MOTION_DOT":6.091e-5,"MEAN_MOTION_DDOT":0},{"OBJECT_NAME":"TRANSPORTER-16 OBJECT BH","OBJECT_ID":"2026-067BH","EPOCH":"2026-04-21T13:56:17.202624","MEAN_MOTION":14.91007785,"ECCENTRICITY":0.0002256,"INCLINATION":97.7548,"RA_OF_ASC_NODE":70.6964,"ARG_OF_PERICENTER":217.5099,"MEAN_ANOMALY":142.5962,"EPHEMERIS_TYPE":0,"CLASSIFICATION_TYPE":"U","NORAD_CAT_ID":68471,"ELEMENT_SET_NO":999,"REV_AT_EPOCH":329,"BSTAR":0.00057011,"MEAN_MOTION_DOT":5.584e-5,"MEAN_MOTION_DDOT":0},{"OBJECT_NAME":"FLYLAB1","OBJECT_ID":"2026-067BJ","EPOCH":"2026-04-21T13:58:30.974880","MEAN_MOTION":14.90855,"ECCENTRICITY":0.0003338,"INCLINATION":97.7591,"RA_OF_ASC_NODE":70.7041,"ARG_OF_PERICENTER":209.2553,"MEAN_ANOMALY":150.8479,"EPHEMERIS_TYPE":0,"CLASSIFICATION_TYPE":"U","NORAD_CAT_ID":68472,"ELEMENT_SET_NO":999,"REV_AT_EPOCH":329,"BSTAR":6.0509e-5,"MEAN_MOTION_DOT":5.41e-6,"MEAN_MOTION_DDOT":0},{"OBJECT_NAME":"TRANSPORTER-16 OBJECT BK","OBJECT_ID":"2026-067BK","EPOCH":"2026-04-20T12:45:38.256192","MEAN_MOTION":15.17938489,"ECCENTRICITY":0.00012906,"INCLINATION":97.4505,"RA_OF_ASC_NODE":69.8565,"ARG_OF_PERICENTER":167.735,"MEAN_ANOMALY":192.3915,"EPHEMERIS_TYPE":0,"CLASSIFICATION_TYPE":"U","NORAD_CAT_ID":68473,"ELEMENT_SET_NO":999,"REV_AT_EPOCH":317,"BSTAR":0.00026780301,"MEAN_MOTION_DOT":5.369e-5,"MEAN_MOTION_DDOT":0},{"OBJECT_NAME":"BLACK KITE-2","OBJECT_ID":"2026-067BL","EPOCH":"2026-04-21T13:28:03.126720","MEAN_MOTION":14.92313499,"ECCENTRICITY":0.0003925,"INCLINATION":97.7513,"RA_OF_ASC_NODE":70.7154,"ARG_OF_PERICENTER":80.1094,"MEAN_ANOMALY":280.0568,"EPHEMERIS_TYPE":0,"CLASSIFICATION_TYPE":"U","NORAD_CAT_ID":68474,"ELEMENT_SET_NO":999,"REV_AT_EPOCH":328,"BSTAR":0.00028463,"MEAN_MOTION_DOT":2.852e-5,"MEAN_MOTION_DDOT":0},{"OBJECT_NAME":"TRANSPORTER-16 OBJECT BM","OBJECT_ID":"2026-067BM","EPOCH":"2026-04-21T13:55:40.658880","MEAN_MOTION":14.91110799,"ECCENTRICITY":0.0001746,"INCLINATION":97.7496,"RA_OF_ASC_NODE":70.687,"ARG_OF_PERICENTER":232.1258,"MEAN_ANOMALY":127.9803,"EPHEMERIS_TYPE":0,"CLASSIFICATION_TYPE":"U","NORAD_CAT_ID":68475,"ELEMENT_SET_NO":999,"REV_AT_EPOCH":276,"BSTAR":0.00067036,"MEAN_MOTION_DOT":6.594e-5,"MEAN_MOTION_DDOT":0},{"OBJECT_NAME":"TRANSPORTER-16 OBJECT BN","OBJECT_ID":"2026-067BN","EPOCH":"2026-04-21T13:28:28.542144","MEAN_MOTION":14.92308894,"ECCENTRICITY":0.000408,"INCLINATION":97.7528,"RA_OF_ASC_NODE":70.7175,"ARG_OF_PERICENTER":90.9227,"MEAN_ANOMALY":269.2459,"EPHEMERIS_TYPE":0,"CLASSIFICATION_TYPE":"U","NORAD_CAT_ID":68476,"ELEMENT_SET_NO":999,"REV_AT_EPOCH":328,"BSTAR":0.00036129,"MEAN_MOTION_DOT":3.636e-5,"MEAN_MOTION_DDOT":0},{"OBJECT_NAME":"TRANSPORTER-16 OBJECT BP","OBJECT_ID":"2026-067BP","EPOCH":"2026-04-21T15:32:14.496864","MEAN_MOTION":14.9108949,"ECCENTRICITY":0.0002346,"INCLINATION":97.7501,"RA_OF_ASC_NODE":70.7533,"ARG_OF_PERICENTER":235.2126,"MEAN_ANOMALY":124.8872,"EPHEMERIS_TYPE":0,"CLASSIFICATION_TYPE":"U","NORAD_CAT_ID":68477,"ELEMENT_SET_NO":999,"REV_AT_EPOCH":270,"BSTAR":0.00057694,"MEAN_MOTION_DOT":5.663e-5,"MEAN_MOTION_DDOT":0}]
